{ 
  "places": 
  [
    { "place_id": 97394, "place_name": "North America", "places":
      [
        { "place_id": 1, "place_name": "United States", "places":
          [
            { "place_id": 14, "place_name": "California" },
            { "place_id": 49, "place_name": "Connecticut" },
            { "place_id": 21, "place_name": "Florida" },
            { "place_id": 35, "place_name": "Illinois" },
            { "place_id": 26, "place_name": "Kentucky" },
            { "place_id": 27, "place_name": "Louisiana" },
            { "place_id": 17, "place_name": "Maine" },
            { "place_id": 2,  "place_name": "Massachusetts" },
            { "place_id": 29, "place_name": "Michigan" },
            { "place_id": 16, "place_name": "Montana" },
            { "place_id": 48, "place_name": "New York" },
            { "place_id": 31, "place_name": "Ohio" },
            { "place_id": 10, "place_name": "Oregon" },
            { "place_id": 44, "place_name": "South Dakota" },
            { "place_id": 45, "place_name": "Tennessee" },
            { "place_id": 18, "place_name": "Texas" },
            { "place_id":  7, "place_name": "Virginia" },
            { "place_id": 32, "place_name": "Wisconsin" },
            { "place_id": 15, "place_name": "Wyoming" }
          ]
        }
      ]
    },
    { "place_id": 97389, "place_name": "South America"
    }
  ],
  "taxa":
  [
    { "taxon_id": 47273,   "taxon_name": "Elasmobranchs" },
    { "taxon_id": 1303731, "taxon_name": "Centrarchiformes"}
  ]
}
