{ 
  "configurations": 
  [
    { 
        "insect_project": "159056", "default_place": "52339,48,42,51", "default_taxon": "47124", "field_id": "3126", "field_name": "Interaction->Visited flower of",
          "places": 
            [
               { "place_id": 52339,   "place_name": "New England" },
               { "place_id": 51,      "place_name": "New Jersey" },
               { "place_id": 48,      "place_name": "New York" },
               { "place_id": 42,      "place_name": "Pennsylvania" },
               { "place_id": 190412,  "place_name": "Bradford Homestead &#128512;", "other_filters": "field:garden list" }
            ],
          "taxa":
            [
               { "taxon_id": 47124,     "taxon_name": "Plant" },
               { "taxon_id": 48699,     "taxon_name": "Carrot Family" },
               { "taxon_id": 373579,    "taxon_name": "Milkweeds" }
            ]
    },

    { 
        "insect_project": "26364", "default_place": "52339", "default_taxon": "47124", "field_id": "12550", "field_name": "EwA - Host Documentation",
          "places": 
            [
               { "place_id": 52339,   "place_name": "All New England" },
               { "place_id": 2,       "place_name": "Massachusetts" },
               { "place_id": 8,       "place_name": "Rhode Island" },
               { "place_id": 49,      "place_name": "Connecticut" }
            ],
          "taxa":
            [
               { "taxon_id": 47124,     "taxon_name": "Plant" },
               { "taxon_id": 48699,     "taxon_name": "Carrot Family" },
               { "taxon_id": 373579,    "taxon_name": "Milkweeds" }
            ]
    }
    
  ]
}
