{ 
  "configurations":    
  [
    {
        "component": "studies",               "title": "Cincinnati Re-Wild",      "utf8": "&#128038;",
        "study_title": "7623",                "study_desc": "Plant that the organism was found on.", 
        "project": "152539",                  "obs_fields": "7623",
        "field_id": "7623",                   "field_name": "plant that the organism was found on",
        "places":
            [
               { "place_id": "201859",    "place_name": "Birchhill Biota" },
               { "place_id": "181426",    "place_name": "Casual Woodland Garden" },
               { "place_id": "137351",    "place_name": "Governor's Hill" },
               { "place_id": "208233",    "place_name": "Grovedale Garden" },
               { "place_id": "188091",    "place_name": "Horizon Community Church" },
               { "place_id": "152537",    "place_name": "Q3B" }
            ]
    },
    {
        "component": "studies",               "title": "Cincinnati Re-Wild",       "utf8": "&#129714;",
        "study_title": "7807",                "study_desc": "Name of Associated Plant.", 
        "project": "152539",                  "obs_fields": "7807",
        "field_id": "7807",                   "field_name": "name of associated plant",
        "places":
            [
               { "place_id": "201859",    "place_name": "Birchhill Biota" },
               { "place_id": "181426",    "place_name": "Casual Woodland Garden" },
               { "place_id": "137351",    "place_name": "Governor's Hill" },
               { "place_id": "208233",    "place_name": "Grovedale Garden" },
               { "place_id": "188091",    "place_name": "Horizon Community Church" },
               { "place_id": "152537",    "place_name": "Q3B" }
            ]
    },    
    {
        "component": "studies",               "title": "Cincinnati Re-Wild",     "utf8": "&#128375;",   
        "study_title": "498",                 "study_desc": "Nectar Plant.", 
        "project": "152539",                  "obs_fields": "498",
        "field_id": "498",                    "field_name": "nectar plant",
        "places":
            [
               { "place_id": "201859",    "place_name": "Birchhill Biota" },
               { "place_id": "181426",    "place_name": "Casual Woodland Garden" },
               { "place_id": "137351",    "place_name": "Governor's Hill" },
               { "place_id": "208233",    "place_name": "Grovedale Garden" },
               { "place_id": "188091",    "place_name": "Horizon Community Church" },
               { "place_id": "152537",    "place_name": "Q3B" }
            ]
    },    
    {
        "component": "studies",               "title": "Cincinnati Re-Wild",        "utf8": "&#128012;",   
        "study_title": "4935",                "study_desc": "Nectar / Pollen Delivering Plant.", 
        "project": "152539",                  "obs_fields": "4935",
        "field_id": "4935",                   "field_name": "nectar / pollen delivering plant",
        "places":
            [
               { "place_id": "201859",    "place_name": "Birchhill Biota" },
               { "place_id": "181426",    "place_name": "Casual Woodland Garden" },
               { "place_id": "137351",    "place_name": "Governor's Hill" },
               { "place_id": "208233",    "place_name": "Grovedale Garden" },
               { "place_id": "188091",    "place_name": "Horizon Community Church" },
               { "place_id": "152537",    "place_name": "Q3B" }
            ]
    },
    {
        "component": "studies",               "title": "Cincinnati Re-Wild",         "utf8": "&#129419;",   
        "study_title": "254",                 "study_desc": "Host Plant.", 
        "project": "152539",                  "obs_fields": "254",
        "field_id": "254",                    "field_name": "host plant",
        "places":
            [
               { "place_id": "201859",    "place_name": "Birchhill Biota" },
               { "place_id": "181426",    "place_name": "Casual Woodland Garden" },
               { "place_id": "137351",    "place_name": "Governor's Hill" },
               { "place_id": "208233",    "place_name": "Grovedale Garden" },
               { "place_id": "188091",    "place_name": "Horizon Community Church" },
               { "place_id": "152537",    "place_name": "Q3B" }
            ]
    }
  ]
}
